start=new Date('2021-12-24T00:00:00.000Z').valueOf();
sats=[{"FILE":"3249421","MEAN_MOTION":"15.06391787","ARG_OF_PERICENTER":"73.3672","REF_FRAME":"TEME","RA_OF_ASC_NODE":"32.0449","MEAN_ANOMALY":"286.7475","SEMIMAJOR_AXIS":"6925.374","COUNTRY_CODE":"US","EPOCH":"2021-12-23T13:27:42.039936","TLE_LINE2":"2 46347  53.0552  32.0449 0001439  73.3672 286.7475 15.06391787 73245","CLASSIFICATION_TYPE":"U","DECAY_DATE":null,"MEAN_MOTION_DOT":"-0.00000515","ECCENTRICITY":"0.00014390","SITE":"AFETR","OBJECT_NAME":"STARLINK-1547","BSTAR":"-0.00001571200000","CENTER_NAME":"EARTH","NORAD_CAT_ID":"46347","MEAN_MOTION_DDOT":"0.0000000000000","APOAPSIS":"548.235","RCS_SIZE":"LARGE","TLE_LINE1":"1 46347U 20062Y   21357.56090324 -.00000515  00000-0 -15712-4 0  9994","ELEMENT_SET_NO":"999","EPHEMERIS_TYPE":"0","PERIOD":"95.593","REV_AT_EPOCH":"7324","TIME_SYSTEM":"UTC","LAUNCH_DATE":"2020-09-03","OBJECT_TYPE":"PAYLOAD","OBJECT_ID":"2020-062Y","GP_ID":"192324468","PERIAPSIS":"546.242","INCLINATION":"53.0552","MEAN_ELEMENT_THEORY":"SGP4"},{"EPOCH":"2021-12-23T14:30:44.371008","COUNTRY_CODE":"US","RA_OF_ASC_NODE":"56.8525","REF_FRAME":"TEME","MEAN_ANOMALY":"287.3331","SEMIMAJOR_AXIS":"6925.365","FILE":"3249421","MEAN_MOTION":"15.06394625","ARG_OF_PERICENTER":"72.7821","SITE":"AFETR","CLASSIFICATION_TYPE":"U","DECAY_DATE":null,"MEAN_MOTION_DOT":"0.00015199","ECCENTRICITY":"0.00014970","TLE_LINE2":"2 46348  53.0540  56.8525 0001497  72.7821 287.3331 15.06394625 72910","RCS_SIZE":"LARGE","APOAPSIS":"548.267","TLE_LINE1":"1 46348U 20062Z   21357.60468022  .00015199  00000-0  10372-2 0  9991","CENTER_NAME":"EARTH","NORAD_CAT_ID":"46348","MEAN_MOTION_DDOT":"0.0000000000000","OBJECT_NAME":"STARLINK-1553","BSTAR":"0.00103720000000","PERIAPSIS":"546.193","INCLINATION":"53.0540","MEAN_ELEMENT_THEORY":"SGP4","LAUNCH_DATE":"2020-09-03","OBJECT_TYPE":"PAYLOAD","OBJECT_ID":"2020-062Z","GP_ID":"192325222","EPHEMERIS_TYPE":"0","PERIOD":"95.592","REV_AT_EPOCH":"7291","TIME_SYSTEM":"UTC","ELEMENT_SET_NO":"999"},{"TLE_LINE2":"2 46349  53.0647  30.6440 0001592  70.2157 289.9003 15.06400529 73305","CLASSIFICATION_TYPE":"U","DECAY_DATE":null,"MEAN_MOTION_DOT":"0.00005965","ECCENTRICITY":"0.00015920","SITE":"AFETR","FILE":"3249421","MEAN_MOTION":"15.06400529","ARG_OF_PERICENTER":"70.2157","REF_FRAME":"TEME","RA_OF_ASC_NODE":"30.6440","SEMIMAJOR_AXIS":"6925.347","MEAN_ANOMALY":"289.9003","COUNTRY_CODE":"US","EPOCH":"2021-12-23T20:48:15.058944","ELEMENT_SET_NO":"999","EPHEMERIS_TYPE":"0","PERIOD":"95.592","REV_AT_EPOCH":"7330","TIME_SYSTEM":"UTC","LAUNCH_DATE":"2020-09-03","OBJECT_TYPE":"PAYLOAD","OBJECT_ID":"2020-062AA","GP_ID":"192323472","PERIAPSIS":"546.109","MEAN_ELEMENT_THEORY":"SGP4","INCLINATION":"53.0647","OBJECT_NAME":"STARLINK-1575","BSTAR":"0.00041900000000","CENTER_NAME":"EARTH","NORAD_CAT_ID":"46349","MEAN_MOTION_DDOT":"0.0000000000000","RCS_SIZE":"LARGE","APOAPSIS":"548.314","TLE_LINE1":"1 46349U 20062AA  21357.86684096  .00005965  00000-0  41900-3 0  9993"},{"PERIAPSIS":"546.391","INCLINATION":"53.0562","MEAN_ELEMENT_THEORY":"SGP4","LAUNCH_DATE":"2020-09-03","GP_ID":"192323723","OBJECT_TYPE":"PAYLOAD","OBJECT_ID":"2020-062AB","PERIOD":"95.592","EPHEMERIS_TYPE":"0","TIME_SYSTEM":"UTC","REV_AT_EPOCH":"7263","ELEMENT_SET_NO":"999","RCS_SIZE":"LARGE","APOAPSIS":"548.018","TLE_LINE1":"1 46350U 20062AB  21357.56596595  .00003285  00000-0  23929-3 0  9992","CENTER_NAME":"EARTH","MEAN_MOTION_DDOT":"0.0000000000000","NORAD_CAT_ID":"46350","OBJECT_NAME":"STARLINK-1617","BSTAR":"0.00023929000000","SITE":"AFETR","DECAY_DATE":null,"CLASSIFICATION_TYPE":"U","ECCENTRICITY":"0.00011750","MEAN_MOTION_DOT":"0.00003285","TLE_LINE2":"2 46350  53.0562  77.0279 0001175  92.6866 267.4257 15.06402872 72630","EPOCH":"2021-12-23T13:34:59.458080","COUNTRY_CODE":"US","REF_FRAME":"TEME","RA_OF_ASC_NODE":"77.0279","MEAN_ANOMALY":"267.4257","SEMIMAJOR_AXIS":"6925.340","MEAN_MOTION":"15.06402872","FILE":"3249421","ARG_OF_PERICENTER":"92.6866"},{"OBJECT_NAME":"STARLINK-1646","BSTAR":"0.00027114000000","CENTER_NAME":"EARTH","MEAN_MOTION_DDOT":"0.0000000000000","NORAD_CAT_ID":"46351","RCS_SIZE":"LARGE","APOAPSIS":"548.160","TLE_LINE1":"1 46351U 20062AC  21357.57149302  .00003760  00000-0  27114-3 0  9992","ELEMENT_SET_NO":"999","PERIOD":"95.592","EPHEMERIS_TYPE":"0","TIME_SYSTEM":"UTC","REV_AT_EPOCH":"7291","LAUNCH_DATE":"2020-09-03","GP_ID":"192324969","OBJECT_ID":"2020-062AC","OBJECT_TYPE":"PAYLOAD","PERIAPSIS":"546.218","MEAN_ELEMENT_THEORY":"SGP4","INCLINATION":"53.0539","MEAN_MOTION":"15.06408117","FILE":"3249421","ARG_OF_PERICENTER":"85.6378","RA_OF_ASC_NODE":"57.0066","REF_FRAME":"TEME","MEAN_ANOMALY":"274.4771","SEMIMAJOR_AXIS":"6925.324","COUNTRY_CODE":"US","EPOCH":"2021-12-23T13:42:56.996928","TLE_LINE2":"2 46351  53.0539  57.0066 0001402  85.6378 274.4771 15.06408117 72918","DECAY_DATE":null,"CLASSIFICATION_TYPE":"U","ECCENTRICITY":"0.00014020","MEAN_MOTION_DOT":"0.00003760","SITE":"AFETR"},{"TIME_SYSTEM":"UTC","REV_AT_EPOCH":"7309","PERIOD":"95.593","EPHEMERIS_TYPE":"0","ELEMENT_SET_NO":"999","MEAN_ELEMENT_THEORY":"SGP4","INCLINATION":"53.0540","PERIAPSIS":"546.261","GP_ID":"192299303","OBJECT_TYPE":"PAYLOAD","OBJECT_ID":"2020-062AD","LAUNCH_DATE":"2020-09-03","BSTAR":"0.00065816000000","OBJECT_NAME":"STARLINK-1653","TLE_LINE1":"1 46352U 20062AD  21357.55307756  .00009533  00000-0  65816-3 0  9995","APOAPSIS":"548.214","RCS_SIZE":"LARGE","MEAN_MOTION_DDOT":"0.0000000000000","NORAD_CAT_ID":"46352","CENTER_NAME":"EARTH","ECCENTRICITY":"0.00014100","MEAN_MOTION_DOT":"0.00009533","DECAY_DATE":null,"CLASSIFICATION_TYPE":"U","TLE_LINE2":"2 46352  53.0540  57.0870 0001410  86.5609 273.5541 15.06392091 73098","SITE":"AFETR","MEAN_ANOMALY":"273.5541","SEMIMAJOR_AXIS":"6925.373","RA_OF_ASC_NODE":"57.0870","REF_FRAME":"TEME","ARG_OF_PERICENTER":"86.5609","MEAN_MOTION":"15.06392091","FILE":"3249065","EPOCH":"2021-12-23T13:16:25.901184","COUNTRY_CODE":"US"},{"TLE_LINE2":"2 46353  53.0549  76.8075 0001319  92.6274 267.4866 15.06399136 72636","MEAN_MOTION_DOT":"0.00001556","ECCENTRICITY":"0.00013190","CLASSIFICATION_TYPE":"U","DECAY_DATE":null,"SITE":"AFETR","ARG_OF_PERICENTER":"92.6274","FILE":"3249421","MEAN_MOTION":"15.06399136","SEMIMAJOR_AXIS":"6925.351","MEAN_ANOMALY":"267.4866","REF_FRAME":"TEME","RA_OF_ASC_NODE":"76.8075","COUNTRY_CODE":"US","EPOCH":"2021-12-23T14:49:18.413472","ELEMENT_SET_NO":"999","REV_AT_EPOCH":"7263","TIME_SYSTEM":"UTC","EPHEMERIS_TYPE":"0","PERIOD":"95.592","OBJECT_TYPE":"PAYLOAD","OBJECT_ID":"2020-062AE","GP_ID":"192323973","LAUNCH_DATE":"2020-09-03","INCLINATION":"53.0549","MEAN_ELEMENT_THEORY":"SGP4","PERIAPSIS":"546.303","BSTAR":"0.00012334000000","OBJECT_NAME":"STARLINK-1656","NORAD_CAT_ID":"46353","MEAN_MOTION_DDOT":"0.0000000000000","CENTER_NAME":"EARTH","TLE_LINE1":"1 46353U 20062AE  21357.61757423  .00001556  00000-0  12334-3 0  9997","APOAPSIS":"548.130","RCS_SIZE":"LARGE"},{"TLE_LINE2":"2 46354  53.0539  76.8456 0001217  81.3228 278.7899 15.06394004 72630","DECAY_DATE":null,"CLASSIFICATION_TYPE":"U","ECCENTRICITY":"0.00012170","MEAN_MOTION_DOT":"0.00001276","SITE":"AFETR","MEAN_MOTION":"15.06394004","FILE":"3249421","ARG_OF_PERICENTER":"81.3228","RA_OF_ASC_NODE":"76.8456","REF_FRAME":"TEME","MEAN_ANOMALY":"278.7899","SEMIMAJOR_AXIS":"6925.367","COUNTRY_CODE":"US","EPOCH":"2021-12-23T14:33:22.828608","ELEMENT_SET_NO":"999","PERIOD":"95.593","EPHEMERIS_TYPE":"0","TIME_SYSTEM":"UTC","REV_AT_EPOCH":"7263","LAUNCH_DATE":"2020-09-03","GP_ID":"192324224","OBJECT_ID":"2020-062AF","OBJECT_TYPE":"PAYLOAD","PERIAPSIS":"546.389","INCLINATION":"53.0539","MEAN_ELEMENT_THEORY":"SGP4","OBJECT_NAME":"STARLINK-1657","BSTAR":"0.00010455000000","CENTER_NAME":"EARTH","MEAN_MOTION_DDOT":"0.0000000000000","NORAD_CAT_ID":"46354","RCS_SIZE":"LARGE","APOAPSIS":"548.075","TLE_LINE1":"1 46354U 20062AF  21357.60651422  .00001276  00000-0  10455-3 0  9990"},{"APOAPSIS":"548.171","RCS_SIZE":"LARGE","TLE_LINE1":"1 46355U 20062AG  21357.64705422 -.00000753  00000-0 -31634-4 0  9999","CENTER_NAME":"EARTH","NORAD_CAT_ID":"46355","MEAN_MOTION_DDOT":"0.0000000000000","OBJECT_NAME":"STARLINK-1661","BSTAR":"-0.00003163400000","PERIAPSIS":"546.231","MEAN_ELEMENT_THEORY":"SGP4","INCLINATION":"53.0554","LAUNCH_DATE":"2020-09-03","OBJECT_TYPE":"PAYLOAD","OBJECT_ID":"2020-062AG","GP_ID":"192324469","EPHEMERIS_TYPE":"0","PERIOD":"95.592","REV_AT_EPOCH":"7264","TIME_SYSTEM":"UTC","ELEMENT_SET_NO":"999","EPOCH":"2021-12-23T15:31:45.484608","COUNTRY_CODE":"US","REF_FRAME":"TEME","RA_OF_ASC_NODE":"76.6705","MEAN_ANOMALY":"261.3711","SEMIMAJOR_AXIS":"6925.336","FILE":"3249421","MEAN_MOTION":"15.06404151","ARG_OF_PERICENTER":"98.7437","SITE":"AFETR","CLASSIFICATION_TYPE":"U","DECAY_DATE":null,"MEAN_MOTION_DOT":"-0.00000753","ECCENTRICITY":"0.00014010","TLE_LINE2":"2 46355  53.0554  76.6705 0001401  98.7437 261.3711 15.06404151 72649"},{"TLE_LINE2":"2 46356  53.0533  76.9244 0001311  88.7477 271.3662 15.06401109 72636","CLASSIFICATION_TYPE":"U","DECAY_DATE":null,"MEAN_MOTION_DOT":"0.00007626","ECCENTRICITY":"0.00013110","SITE":"AFETR","FILE":"3249421","MEAN_MOTION":"15.06401109","ARG_OF_PERICENTER":"88.7477","RA_OF_ASC_NODE":"76.9244","REF_FRAME":"TEME","SEMIMAJOR_AXIS":"6925.345","MEAN_ANOMALY":"271.3662","COUNTRY_CODE":"US","EPOCH":"2021-12-23T14:12:09.102528","ELEMENT_SET_NO":"999","EPHEMERIS_TYPE":"0","PERIOD":"95.592","REV_AT_EPOCH":"7263","TIME_SYSTEM":"UTC","LAUNCH_DATE":"2020-09-03","OBJECT_ID":"2020-062AH","OBJECT_TYPE":"PAYLOAD","GP_ID":"192325223","PERIAPSIS":"546.302","INCLINATION":"53.0533","MEAN_ELEMENT_THEORY":"SGP4","OBJECT_NAME":"STARLINK-1665","BSTAR":"0.00053028000000","CENTER_NAME":"EARTH","NORAD_CAT_ID":"46356","MEAN_MOTION_DDOT":"0.0000000000000","RCS_SIZE":"LARGE","APOAPSIS":"548.118","TLE_LINE1":"1 46356U 20062AH  21357.59177202  .00007626  00000-0  53028-3 0  9997"}];
